SKYSAT-C7               
1 42991U 17068E   25334.11838755  .00013533  00000+0  44110-3 0  9999
2 42991  97.4276 105.1198 0007915  96.3654 263.8489 15.31908043451848
SKYSAT-C6               
1 42992U 17068F   25334.09034075  .00012148  00000+0  40672-3 0  9990
2 42992  97.4309 105.5402 0005091 118.3245 241.8510 15.31088938451823
CARTOSAT-2F             
1 43111U 18004A   25332.19249595  .00001165  00000+0  58427-4 0  9994
2 43111  97.4340  30.0638 0000769 229.2981 130.8187 15.19277789436810
GAOFEN-1 02             
1 43259U 18031A   25334.18721834  .00001119  00000+0  16839-3 0  9998
2 43259  98.0824  31.9706 0001284 278.4777  81.6287 14.76438419413332
GAOFEN-1 03             
1 43260U 18031B   25332.06421597  .00001145  00000+0  17191-3 0  9999
2 43260  98.0818  29.7254 0002787   6.5663 353.5582 14.76498173413010
GAOFEN-1 04             
1 43262U 18031D   25334.20873212  .00001123  00000+0  16902-3 0  9999
2 43262  98.0825  32.0384 0001461  64.5325 295.6035 14.76407957413321
SENTINEL-3B             
1 43437U 18039A   25334.16107840  .00000162  00000+0  84844-4 0  9996
2 43437  98.6284  39.5257 0001458 114.5899 245.5433 14.26735086395742
GAOFEN-5 01             
1 43461U 18043A   25334.17875674  .00000557  00000+0  12516-3 0  9990
2 43461  98.4310 296.9282 0001788  18.7913 341.3352 14.60386992402641
