{
  "type": "FeatureCollection",
  "features": [
    {
      "type": "Feature",
      "properties": {
        "OBJECT_NAME": "SKYSAT-C7",
        "OBJECT_ID": "2017-068E",
        "EPOCH": "2025-11-30T02:50:28.684320",
        "MEAN_MOTION": 15.31908043,
        "ECCENTRICITY": 0.0007915,
        "INCLINATION": 97.4276,
        "RA_OF_ASC_NODE": 105.1198,
        "ARG_OF_PERICENTER": 96.3654,
        "MEAN_ANOMALY": 263.8489,
        "EPHEMERIS_TYPE": 0,
        "CLASSIFICATION_TYPE": "U",
        "NORAD_CAT_ID": 42991,
        "ELEMENT_SET_NO": 999,
        "REV_AT_EPOCH": 45184,
        "BSTAR": 0.0004411,
        "MEAN_MOTION_DOT": 0.00013533,
        "MEAN_MOTION_DDOT": 0,
        "norad_id": 42991,
        "name": "SKYSAT-C7",
        "group": "resource",
        "longitude_deg": NaN,
        "latitude_deg": NaN,
        "alt_km": NaN,
        "orbit_class": "HEO",
        "timestamp": "2025-11-30T09:33:02.507173+00:00"
      },
      "geometry": {
        "type": "Point",
        "coordinates": [
          NaN,
          NaN
        ]
      }
    },
    {
      "type": "Feature",
      "properties": {
        "OBJECT_NAME": "SKYSAT-C6",
        "OBJECT_ID": "2017-068F",
        "EPOCH": "2025-11-30T02:10:05.440800",
        "MEAN_MOTION": 15.31088938,
        "ECCENTRICITY": 0.0005091,
        "INCLINATION": 97.4309,
        "RA_OF_ASC_NODE": 105.5402,
        "ARG_OF_PERICENTER": 118.3245,
        "MEAN_ANOMALY": 241.851,
        "EPHEMERIS_TYPE": 0,
        "CLASSIFICATION_TYPE": "U",
        "NORAD_CAT_ID": 42992,
        "ELEMENT_SET_NO": 999,
        "REV_AT_EPOCH": 45182,
        "BSTAR": 0.00040672,
        "MEAN_MOTION_DOT": 0.00012148,
        "MEAN_MOTION_DDOT": 0,
        "norad_id": 42992,
        "name": "SKYSAT-C6",
        "group": "resource",
        "longitude_deg": NaN,
        "latitude_deg": NaN,
        "alt_km": NaN,
        "orbit_class": "HEO",
        "timestamp": "2025-11-30T09:33:02.507179+00:00"
      },
      "geometry": {
        "type": "Point",
        "coordinates": [
          NaN,
          NaN
        ]
      }
    },
    {
      "type": "Feature",
      "properties": {
        "OBJECT_NAME": "CARTOSAT-2F",
        "OBJECT_ID": "2018-004A",
        "EPOCH": "2025-11-28T04:37:11.650080",
        "MEAN_MOTION": 15.19277789,
        "ECCENTRICITY": 7.695e-05,
        "INCLINATION": 97.434,
        "RA_OF_ASC_NODE": 30.0638,
        "ARG_OF_PERICENTER": 229.2981,
        "MEAN_ANOMALY": 130.8187,
        "EPHEMERIS_TYPE": 0,
        "CLASSIFICATION_TYPE": "U",
        "NORAD_CAT_ID": 43111,
        "ELEMENT_SET_NO": 999,
        "REV_AT_EPOCH": 43681,
        "BSTAR": 5.842651e-05,
        "MEAN_MOTION_DOT": 1.165e-05,
        "MEAN_MOTION_DDOT": 0,
        "norad_id": 43111,
        "name": "CARTOSAT-2F",
        "group": "resource",
        "longitude_deg": NaN,
        "latitude_deg": NaN,
        "alt_km": NaN,
        "orbit_class": "HEO",
        "timestamp": "2025-11-30T09:33:02.507457+00:00"
      },
      "geometry": {
        "type": "Point",
        "coordinates": [
          NaN,
          NaN
        ]
      }
    },
    {
      "type": "Feature",
      "properties": {
        "OBJECT_NAME": "GAOFEN-1 02",
        "OBJECT_ID": "2018-031A",
        "EPOCH": "2025-11-30T04:29:35.664576",
        "MEAN_MOTION": 14.76438419,
        "ECCENTRICITY": 0.0001284,
        "INCLINATION": 98.0824,
        "RA_OF_ASC_NODE": 31.9706,
        "ARG_OF_PERICENTER": 278.4777,
        "MEAN_ANOMALY": 81.6287,
        "EPHEMERIS_TYPE": 0,
        "CLASSIFICATION_TYPE": "U",
        "NORAD_CAT_ID": 43259,
        "ELEMENT_SET_NO": 999,
        "REV_AT_EPOCH": 41333,
        "BSTAR": 0.00016839,
        "MEAN_MOTION_DOT": 1.119e-05,
        "MEAN_MOTION_DDOT": 0,
        "norad_id": 43259,
        "name": "GAOFEN-1 02",
        "group": "resource",
        "longitude_deg": NaN,
        "latitude_deg": NaN,
        "alt_km": NaN,
        "orbit_class": "HEO",
        "timestamp": "2025-11-30T09:33:02.507765+00:00"
      },
      "geometry": {
        "type": "Point",
        "coordinates": [
          NaN,
          NaN
        ]
      }
    },
    {
      "type": "Feature",
      "properties": {
        "OBJECT_NAME": "GAOFEN-1 03",
        "OBJECT_ID": "2018-031B",
        "EPOCH": "2025-11-28T01:32:28.259808",
        "MEAN_MOTION": 14.76498173,
        "ECCENTRICITY": 0.00027871,
        "INCLINATION": 98.0818,
        "RA_OF_ASC_NODE": 29.7254,
        "ARG_OF_PERICENTER": 6.5663,
        "MEAN_ANOMALY": 353.5582,
        "EPHEMERIS_TYPE": 0,
        "CLASSIFICATION_TYPE": "U",
        "NORAD_CAT_ID": 43260,
        "ELEMENT_SET_NO": 999,
        "REV_AT_EPOCH": 41301,
        "BSTAR": 0.00017190576,
        "MEAN_MOTION_DOT": 1.145e-05,
        "MEAN_MOTION_DDOT": 0,
        "norad_id": 43260,
        "name": "GAOFEN-1 03",
        "group": "resource",
        "longitude_deg": NaN,
        "latitude_deg": NaN,
        "alt_km": NaN,
        "orbit_class": "HEO",
        "timestamp": "2025-11-30T09:33:02.507771+00:00"
      },
      "geometry": {
        "type": "Point",
        "coordinates": [
          NaN,
          NaN
        ]
      }
    },
    {
      "type": "Feature",
      "properties": {
        "OBJECT_NAME": "GAOFEN-1 04",
        "OBJECT_ID": "2018-031D",
        "EPOCH": "2025-11-30T05:00:34.455168",
        "MEAN_MOTION": 14.76407957,
        "ECCENTRICITY": 0.0001461,
        "INCLINATION": 98.0825,
        "RA_OF_ASC_NODE": 32.0384,
        "ARG_OF_PERICENTER": 64.5325,
        "MEAN_ANOMALY": 295.6035,
        "EPHEMERIS_TYPE": 0,
        "CLASSIFICATION_TYPE": "U",
        "NORAD_CAT_ID": 43262,
        "ELEMENT_SET_NO": 999,
        "REV_AT_EPOCH": 41332,
        "BSTAR": 0.00016902,
        "MEAN_MOTION_DOT": 1.123e-05,
        "MEAN_MOTION_DDOT": 0,
        "norad_id": 43262,
        "name": "GAOFEN-1 04",
        "group": "resource",
        "longitude_deg": NaN,
        "latitude_deg": NaN,
        "alt_km": NaN,
        "orbit_class": "HEO",
        "timestamp": "2025-11-30T09:33:02.507777+00:00"
      },
      "geometry": {
        "type": "Point",
        "coordinates": [
          NaN,
          NaN
        ]
      }
    },
    {
      "type": "Feature",
      "properties": {
        "OBJECT_NAME": "SENTINEL-3B",
        "OBJECT_ID": "2018-039A",
        "EPOCH": "2025-11-30T03:51:57.173760",
        "MEAN_MOTION": 14.26735086,
        "ECCENTRICITY": 0.0001458,
        "INCLINATION": 98.6284,
        "RA_OF_ASC_NODE": 39.5257,
        "ARG_OF_PERICENTER": 114.5899,
        "MEAN_ANOMALY": 245.5433,
        "EPHEMERIS_TYPE": 0,
        "CLASSIFICATION_TYPE": "U",
        "NORAD_CAT_ID": 43437,
        "ELEMENT_SET_NO": 999,
        "REV_AT_EPOCH": 39574,
        "BSTAR": 8.4844e-05,
        "MEAN_MOTION_DOT": 1.62e-06,
        "MEAN_MOTION_DDOT": 0,
        "norad_id": 43437,
        "name": "SENTINEL-3B",
        "group": "resource",
        "longitude_deg": NaN,
        "latitude_deg": NaN,
        "alt_km": NaN,
        "orbit_class": "HEO",
        "timestamp": "2025-11-30T09:33:02.507843+00:00"
      },
      "geometry": {
        "type": "Point",
        "coordinates": [
          NaN,
          NaN
        ]
      }
    },
    {
      "type": "Feature",
      "properties": {
        "OBJECT_NAME": "GAOFEN-5 01",
        "OBJECT_ID": "2018-043A",
        "EPOCH": "2025-11-30T04:17:24.582336",
        "MEAN_MOTION": 14.60386992,
        "ECCENTRICITY": 0.0001788,
        "INCLINATION": 98.431,
        "RA_OF_ASC_NODE": 296.9282,
        "ARG_OF_PERICENTER": 18.7913,
        "MEAN_ANOMALY": 341.3352,
        "EPHEMERIS_TYPE": 0,
        "CLASSIFICATION_TYPE": "U",
        "NORAD_CAT_ID": 43461,
        "ELEMENT_SET_NO": 999,
        "REV_AT_EPOCH": 40264,
        "BSTAR": 0.00012516,
        "MEAN_MOTION_DOT": 5.57e-06,
        "MEAN_MOTION_DDOT": 0,
        "norad_id": 43461,
        "name": "GAOFEN-5 01",
        "group": "resource",
        "longitude_deg": NaN,
        "latitude_deg": NaN,
        "alt_km": NaN,
        "orbit_class": "HEO",
        "timestamp": "2025-11-30T09:33:02.507882+00:00"
      },
      "geometry": {
        "type": "Point",
        "coordinates": [
          NaN,
          NaN
        ]
      }
    }
  ]
}